[{"OBJECT_NAME":"ICESAT-2","OBJECT_ID":"2018-070A","EPOCH":"2026-03-09T22:54:12.225888","MEAN_MOTION":15.28328617,"ECCENTRICITY":0.00038245,"INCLINATION":91.9993,"RA_OF_ASC_NODE":264.2397,"ARG_OF_PERICENTER":123.8941,"MEAN_ANOMALY":236.2673,"EPHEMERIS_TYPE":0,"CLASSIFICATION_TYPE":"U","NORAD_CAT_ID":43613,"ELEMENT_SET_NO":999,"REV_AT_EPOCH":41730,"BSTAR":0.00014022643,"MEAN_MOTION_DOT":3.87e-5,"MEAN_MOTION_DDOT":0},{"OBJECT_NAME":"STARLINK-31407","OBJECT_ID":"2024-049V","EPOCH":"2026-03-09T05:13:00.926976","MEAN_MOTION":15.27577137,"ECCENTRICITY":0.00015334,"INCLINATION":42.9986,"RA_OF_ASC_NODE":134.9722,"ARG_OF_PERICENTER":280.0581,"MEAN_ANOMALY":80.0097,"EPHEMERIS_TYPE":0,"CLASSIFICATION_TYPE":"U","NORAD_CAT_ID":59250,"ELEMENT_SET_NO":999,"REV_AT_EPOCH":11245,"BSTAR":5.7445052e-5,"MEAN_MOTION_DOT":1.319e-5,"MEAN_MOTION_DDOT":0}]
